{"type": "FeatureCollection", "features": [ {"type": "Feature", "properties": {"norad_id": 33867, "name": "IRIDIUM 33 DEB", "group": "iridium-33-debris", "lat": 66.38053119815744, "lon": 162.15547078738427, "alt_km": 354.56622681988483, "timestamp": "2025-12-11T22:43:47.654433+00:00", "meta": {"OBJECT_NAME": "IRIDIUM 33 DEB", "OBJECT_ID": "1997-051AL", "EPOCH": "2025-12-11T11:30:45.158112", "MEAN_MOTION": 15.6538919, "ECCENTRICITY": 0.00132443, "INCLINATION": 86.3636, "RA_OF_ASC_NODE": 350.76, "ARG_OF_PERICENTER": 90.5999, "MEAN_ANOMALY": 269.6786, "EPHEMERIS_TYPE": 0, "CLASSIFICATION_TYPE": "U", "NORAD_CAT_ID": 33867, "ELEMENT_SET_NO": 999, "REV_AT_EPOCH": 89491, "BSTAR": 0.011411121, "MEAN_MOTION_DOT": 0.01268862, "MEAN_MOTION_DDOT": 0}, "tle": {"line1": "1 33867U 97051AL  25345.47968933  .01268862  00000+0  11411-1 0  9998", "line2": "2 33867  86.3636 350.7600 0013244  90.5999 269.6786 15.65389190894919"}}, "geometry": {"type": "Point", "coordinates": [162.15547078738427, 66.38053119815744]}}, {"type": "Feature", "properties": {"norad_id": 33870, "name": "IRIDIUM 33 DEB", "group": "iridium-33-debris", "lat": 16.89081067412462, "lon": -122.50282458299006, "alt_km": 725.4093208713748, "timestamp": "2025-12-11T22:43:47.654444+00:00", "meta": {"OBJECT_NAME": "IRIDIUM 33 DEB", "OBJECT_ID": "1997-051AP", "EPOCH": "2025-12-11T05:37:02.620704", "MEAN_MOTION": 14.45838487, "ECCENTRICITY": 0.00213236, "INCLINATION": 86.3744, "RA_OF_ASC_NODE": 58.9059, "ARG_OF_PERICENTER": 182.8727, "MEAN_ANOMALY": 231.2371, "EPHEMERIS_TYPE": 0, "CLASSIFICATION_TYPE": "U", "NORAD_CAT_ID": 33870, "ELEMENT_SET_NO": 999, "REV_AT_EPOCH": 88115, "BSTAR": 0.0012319282, "MEAN_MOTION_DOT": 4.403e-05, "MEAN_MOTION_DDOT": 0}, "tle": {"line1": "1 33870U 97051AP  25345.23405811  .00004403  00000+0  12319-2 0  9994", "line2": "2 33870  86.3744  58.9059 0021323 182.8727 231.2371 14.45838487881151"}}, "geometry": {"type": "Point", "coordinates": [-122.50282458299006, 16.89081067412462]}}, {"type": "Feature", "properties": {"norad_id": 33881, "name": "IRIDIUM 33 DEB", "group": "iridium-33-debris", "lat": 0.5877478112418014, "lon": 107.12392208122124, "alt_km": 750.8031795810575, "timestamp": "2025-12-11T22:43:47.654455+00:00", "meta": {"OBJECT_NAME": "IRIDIUM 33 DEB", "OBJECT_ID": "1997-051BA", "EPOCH": "2025-12-11T14:32:20.085792", "MEAN_MOTION": 14.56542071, "ECCENTRICITY": 0.00614976, "INCLINATION": 86.3861, "RA_OF_ASC_NODE": 107.2351, "ARG_OF_PERICENTER": 178.2333, "MEAN_ANOMALY": 194.09, "EPHEMERIS_TYPE": 0, "CLASSIFICATION_TYPE": "U", "NORAD_CAT_ID": 33881, "ELEMENT_SET_NO": 999, "REV_AT_EPOCH": 87484, "BSTAR": 0.0035261884, "MEAN_MOTION_DOT": 0.00016145, "MEAN_MOTION_DDOT": 0}, "tle": {"line1": "1 33881U 97051BA  25345.60578803  .00016145  00000+0  35262-2 0  9997", "line2": "2 33881  86.3861 107.2351 0061497 178.2333 194.0900 14.56542071874849"}}, "geometry": {"type": "Point", "coordinates": [107.12392208122124, 0.5877478112418014]}}, {"type": "Feature", "properties": {"norad_id": 33884, "name": "IRIDIUM 33 DEB", "group": "iridium-33-debris", "lat": -67.66933694105023, "lon": -160.932675744967, "alt_km": 643.5616325034198, "timestamp": "2025-12-11T22:43:47.654466+00:00", "meta": {"OBJECT_NAME": "IRIDIUM 33 DEB", "OBJECT_ID": "1997-051BD", "EPOCH": "2025-12-11T10:27:31.158720", "MEAN_MOTION": 14.77392014, "ECCENTRICITY": 0.0009807, "INCLINATION": 86.3697, "RA_OF_ASC_NODE": 10.4065, "ARG_OF_PERICENTER": 328.8934, "MEAN_ANOMALY": 81.4709, "EPHEMERIS_TYPE": 0, "CLASSIFICATION_TYPE": "U", "NORAD_CAT_ID": 33884, "ELEMENT_SET_NO": 999, "REV_AT_EPOCH": 88828, "BSTAR": 0.002752918, "MEAN_MOTION_DOT": 0.0001965, "MEAN_MOTION_DDOT": 0}, "tle": {"line1": "1 33884U 97051BD  25345.43577730  .00019650  00000+0  27529-2 0  9990", "line2": "2 33884  86.3697  10.4065 0009807 328.8934  81.4709 14.77392014888285"}}, "geometry": {"type": "Point", "coordinates": [-160.932675744967, -67.66933694105023]}}, {"type": "Feature", "properties": {"norad_id": 33886, "name": "IRIDIUM 33 DEB", "group": "iridium-33-debris", "lat": -68.05093378411303, "lon": 58.53196124861718, "alt_km": 772.8997504210656, "timestamp": "2025-12-11T22:43:47.654479+00:00", "meta": {"OBJECT_NAME": "IRIDIUM 33 DEB", "OBJECT_ID": "1997-051BF", "EPOCH": "2025-12-11T11:23:31.797312", "MEAN_MOTION": 14.36050155, "ECCENTRICITY": 0.00122283, "INCLINATION": 86.383, "RA_OF_ASC_NODE": 67.7612, "ARG_OF_PERICENTER": 246.7656, "MEAN_ANOMALY": 124.1555, "EPHEMERIS_TYPE": 0, "CLASSIFICATION_TYPE": "U", "NORAD_CAT_ID": 33886, "ELEMENT_SET_NO": 999, "REV_AT_EPOCH": 88034, "BSTAR": 0.00033597727, "MEAN_MOTION_DOT": 9.97e-06, "MEAN_MOTION_DDOT": 0}, "tle": {"line1": "1 33886U 97051BF  25345.47467358  .00000997  00000+0  33598-3 0  9998", "line2": "2 33886  86.3830  67.7612 0012228 246.7656 124.1555 14.36050155880344"}}, "geometry": {"type": "Point", "coordinates": [58.53196124861718, -68.05093378411303]}}, {"type": "Feature", "properties": {"norad_id": 33887, "name": "IRIDIUM 33 DEB", "group": "iridium-33-debris", "lat": -44.49779216000003, "lon": -172.62477753745728, "alt_km": 771.4266824723636, "timestamp": "2025-12-11T22:43:47.654492+00:00", "meta": {"OBJECT_NAME": "IRIDIUM 33 DEB", "OBJECT_ID": "1997-051BG", "EPOCH": "2025-12-11T01:55:48.688896", "MEAN_MOTION": 14.37218579, "ECCENTRICITY": 0.0004312, "INCLINATION": 86.3045, "RA_OF_ASC_NODE": 4.1074, "ARG_OF_PERICENTER": 234.0797, "MEAN_ANOMALY": 189.2272, "EPHEMERIS_TYPE": 0, "CLASSIFICATION_TYPE": "U", "NORAD_CAT_ID": 33887, "ELEMENT_SET_NO": 999, "REV_AT_EPOCH": 88141, "BSTAR": 0.00021085031, "MEAN_MOTION_DOT": 6.47e-06, "MEAN_MOTION_DDOT": 0}, "tle": {"line1": "1 33887U 97051BG  25345.08042464  .00000647  00000+0  21085-3 0  9993", "line2": "2 33887  86.3045   4.1074 0004312 234.0797 189.2272 14.37218579881415"}}, "geometry": {"type": "Point", "coordinates": [-172.62477753745728, -44.49779216000003]}}, {"type": "Feature", "properties": {"norad_id": 33953, "name": "IRIDIUM 33 DEB", "group": "iridium-33-debris", "lat": 28.10427068981519, "lon": 56.05829532506625, "alt_km": 704.2049751643144, "timestamp": "2025-12-11T22:43:47.654503+00:00", "meta": {"OBJECT_NAME": "IRIDIUM 33 DEB", "OBJECT_ID": "1997-051BN", "EPOCH": "2025-12-11T11:07:41.316960", "MEAN_MOTION": 14.55307463, "ECCENTRICITY": 0.00184119, "INCLINATION": 86.3843, "RA_OF_ASC_NODE": 54.3329, "ARG_OF_PERICENTER": 106.7147, "MEAN_ANOMALY": 270.7615, "EPHEMERIS_TYPE": 0, "CLASSIFICATION_TYPE": "U", "NORAD_CAT_ID": 33953, "ELEMENT_SET_NO": 999, "REV_AT_EPOCH": 88285, "BSTAR": 0.0022887036, "MEAN_MOTION_DOT": 9.967e-05, "MEAN_MOTION_DDOT": 0}, "tle": {"line1": "1 33953U 97051BN  25345.46367265  .00009967  00000+0  22887-2 0  9992", "line2": "2 33953  86.3843  54.3329 0018411 106.7147 270.7615 14.55307463882851"}}, "geometry": {"type": "Point", "coordinates": [56.05829532506625, 28.10427068981519]}}, {"type": "Feature", "properties": {"norad_id": 33960, "name": "IRIDIUM 33 DEB", "group": "iridium-33-debris", "lat": 71.87528578744049, "lon": 98.33917388130915, "alt_km": 602.6386223610998, "timestamp": "2025-12-11T22:43:47.654514+00:00", "meta": {"OBJECT_NAME": "IRIDIUM 33 DEB", "OBJECT_ID": "1997-051BV", "EPOCH": "2025-12-11T14:56:53.632608", "MEAN_MOTION": 14.85098404, "ECCENTRICITY": 0.00074782, "INCLINATION": 86.2531, "RA_OF_ASC_NODE": 290.0411, "ARG_OF_PERICENTER": 64.1065, "MEAN_ANOMALY": 111.1917, "EPHEMERIS_TYPE": 0, "CLASSIFICATION_TYPE": "U", "NORAD_CAT_ID": 33960, "ELEMENT_SET_NO": 999, "REV_AT_EPOCH": 88850, "BSTAR": 0.0051621197, "MEAN_MOTION_DOT": 0.00044397, "MEAN_MOTION_DDOT": 0}, "tle": {"line1": "1 33960U 97051BV  25345.62284297  .00044397  00000+0  51621-2 0  9995", "line2": "2 33960  86.2531 290.0411 0007478  64.1065 111.1917 14.85098404888506"}}, "geometry": {"type": "Point", "coordinates": [98.33917388130915, 71.87528578744049]}}, {"type": "Feature", "properties": {"norad_id": 33966, "name": "IRIDIUM 33 DEB", "group": "iridium-33-debris", "lat": 9.069914696477424, "lon": -134.2097543589348, "alt_km": 723.9526434791451, "timestamp": "2025-12-11T22:43:47.654524+00:00", "meta": {"OBJECT_NAME": "IRIDIUM 33 DEB", "OBJECT_ID": "1997-051CB", "EPOCH": "2025-12-11T14:16:19.034400", "MEAN_MOTION": 14.49586801, "ECCENTRICITY": 0.00072721, "INCLINATION": 86.3923, "RA_OF_ASC_NODE": 46.5185, "ARG_OF_PERICENTER": 192.0381, "MEAN_ANOMALY": 300.8829, "EPHEMERIS_TYPE": 0, "CLASSIFICATION_TYPE": "U", "NORAD_CAT_ID": 33966, "ELEMENT_SET_NO": 999, "REV_AT_EPOCH": 88425, "BSTAR": 0.00085094267, "MEAN_MOTION_DOT": 3.286e-05, "MEAN_MOTION_DDOT": 0}, "tle": {"line1": "1 33966U 97051CB  25345.59466475  .00003286  00000+0  85094-3 0  9991", "line2": "2 33966  86.3923  46.5185 0007272 192.0381 300.8829 14.49586801884254"}}, "geometry": {"type": "Point", "coordinates": [-134.2097543589348, 9.069914696477424]}}, {"type": "Feature", "properties": {"norad_id": 34071, "name": "IRIDIUM 33 DEB", "group": "iridium-33-debris", "lat": -57.55338629984814, "lon": -156.05830300426445, "alt_km": 738.9484272999525, "timestamp": "2025-12-11T22:43:47.654535+00:00", "meta": {"OBJECT_NAME": "IRIDIUM 33 DEB", "OBJECT_ID": "1997-051CE", "EPOCH": "2025-12-11T11:41:47.097024", "MEAN_MOTION": 14.49457141, "ECCENTRICITY": 0.00099283, "INCLINATION": 86.3459, "RA_OF_ASC_NODE": 18.3725, "ARG_OF_PERICENTER": 111.0549, "MEAN_ANOMALY": 249.1718, "EPHEMERIS_TYPE": 0, "CLASSIFICATION_TYPE": "U", "NORAD_CAT_ID": 34071, "ELEMENT_SET_NO": 999, "REV_AT_EPOCH": 88316, "BSTAR": 0.001052324, "MEAN_MOTION_DOT": 4.049e-05, "MEAN_MOTION_DDOT": 0}, "tle": {"line1": "1 34071U 97051CE  25345.48735066  .00004049  00000+0  10523-2 0  9994", "line2": "2 34071  86.3459  18.3725 0009928 111.0549 249.1718 14.49457141883165"}}, "geometry": {"type": "Point", "coordinates": [-156.05830300426445, -57.55338629984814]}}]}